{"type": "FeatureCollection", "features": [ {"type": "Feature", "properties": {"norad_id": 38068, "name": "COSMOS 2251 DEB", "group": "cosmos-2251-debris", "lat": 43.09060522341021, "lon": -39.39641316425948, "alt_km": 750.966442368067, "timestamp": "2025-12-14T11:29:50.458478+00:00", "meta": {"OBJECT_NAME": "COSMOS 2251 DEB", "OBJECT_ID": "1993-036BSA", "EPOCH": "2025-11-26T00:12:22.263264", "MEAN_MOTION": 14.35960004, "ECCENTRICITY": 0.00240903, "INCLINATION": 74.0219, "RA_OF_ASC_NODE": 338.9788, "ARG_OF_PERICENTER": 72.1007, "MEAN_ANOMALY": 288.2769, "EPHEMERIS_TYPE": 0, "CLASSIFICATION_TYPE": "U", "NORAD_CAT_ID": 38068, "ELEMENT_SET_NO": 999, "REV_AT_EPOCH": 66406, "BSTAR": 0.00028750999, "MEAN_MOTION_DOT": 8.11e-06, "MEAN_MOTION_DDOT": 0}, "tle": {"line1": "1 38068U 93036BSA 25330.00859101  .00000811  00000+0  28751-3 0  9998", "line2": "2 38068  74.0219 338.9788 0024090  72.1007 288.2769 14.35960004664064"}}, "geometry": {"type": "Point", "coordinates": [-39.39641316425948, 43.09060522341021]}}, {"type": "Feature", "properties": {"norad_id": 38197, "name": "COSMOS 2251 DEB", "group": "cosmos-2251-debris", "lat": -73.48531065062451, "lon": -82.68457360323943, "alt_km": 589.6501273375816, "timestamp": "2025-12-14T11:29:50.458488+00:00", "meta": {"OBJECT_NAME": "COSMOS 2251 DEB", "OBJECT_ID": "1993-036BSM", "EPOCH": "2025-12-13T06:34:10.537248", "MEAN_MOTION": 14.74086411, "ECCENTRICITY": 0.01258373, "INCLINATION": 73.9395, "RA_OF_ASC_NODE": 356.0012, "ARG_OF_PERICENTER": 233.3614, "MEAN_ANOMALY": 125.5937, "EPHEMERIS_TYPE": 0, "CLASSIFICATION_TYPE": "U", "NORAD_CAT_ID": 38197, "ELEMENT_SET_NO": 999, "REV_AT_EPOCH": 85763, "BSTAR": 0.006992667, "MEAN_MOTION_DOT": 0.00052653, "MEAN_MOTION_DDOT": 0}, "tle": {"line1": "1 38197U 93036BSM 25347.27373307  .00052653  00000+0  69927-2 0  9997", "line2": "2 38197  73.9395 356.0012 0125837 233.3614 125.5937 14.74086411857638"}}, "geometry": {"type": "Point", "coordinates": [-82.68457360323943, -73.48531065062451]}}, {"type": "Feature", "properties": {"norad_id": 38199, "name": "COSMOS 2251 DEB", "group": "cosmos-2251-debris", "lat": 69.7174177309321, "lon": -171.7999193921961, "alt_km": 1127.3398823368843, "timestamp": "2025-12-14T11:29:50.458498+00:00", "meta": {"OBJECT_NAME": "COSMOS 2251 DEB", "OBJECT_ID": "1993-036BSP", "EPOCH": "2025-12-09T13:08:57.601824", "MEAN_MOTION": 13.64788419, "ECCENTRICITY": 0.0369499, "INCLINATION": 73.956, "RA_OF_ASC_NODE": 67.4327, "ARG_OF_PERICENTER": 354.5631, "MEAN_ANOMALY": 5.1515, "EPHEMERIS_TYPE": 0, "CLASSIFICATION_TYPE": "U", "NORAD_CAT_ID": 38199, "ELEMENT_SET_NO": 999, "REV_AT_EPOCH": 60978, "BSTAR": 0.00073909, "MEAN_MOTION_DOT": 9.26e-06, "MEAN_MOTION_DDOT": 0}, "tle": {"line1": "1 38199U 93036BSP 25343.54788891  .00000926  00000+0  73909-3 0  9995", "line2": "2 38199  73.9560  67.4327 0369499 354.5631   5.1515 13.64788419609786"}}, "geometry": {"type": "Point", "coordinates": [-171.7999193921961, 69.7174177309321]}}, {"type": "Feature", "properties": {"norad_id": 38208, "name": "COSMOS 2251 DEB", "group": "cosmos-2251-debris", "lat": -69.0795557852801, "lon": 26.835770233881227, "alt_km": 624.6162456677175, "timestamp": "2025-12-14T11:29:50.458508+00:00", "meta": {"OBJECT_NAME": "COSMOS 2251 DEB", "OBJECT_ID": "1993-036BSY", "EPOCH": "2025-12-13T17:06:55.631232", "MEAN_MOTION": 14.83950363, "ECCENTRICITY": 0.00020433, "INCLINATION": 74.0053, "RA_OF_ASC_NODE": 76.977, "ARG_OF_PERICENTER": 155.4201, "MEAN_ANOMALY": 358.2431, "EPHEMERIS_TYPE": 0, "CLASSIFICATION_TYPE": "U", "NORAD_CAT_ID": 38208, "ELEMENT_SET_NO": 999, "REV_AT_EPOCH": 71173, "BSTAR": 0.0025143391, "MEAN_MOTION_DOT": 0.00020943, "MEAN_MOTION_DDOT": 0}, "tle": {"line1": "1 38208U 93036BSY 25347.71314388  .00020943  00000+0  25143-2 0  9992", "line2": "2 38208  74.0053  76.9770 0002043 155.4201 358.2431 14.83950363711732"}}, "geometry": {"type": "Point", "coordinates": [26.835770233881227, -69.0795557852801]}}, {"type": "Feature", "properties": {"norad_id": 38212, "name": "COSMOS 2251 DEB", "group": "cosmos-2251-debris", "lat": -15.397498022659994, "lon": -102.29314366924112, "alt_km": 604.5195198834772, "timestamp": "2025-12-14T11:29:50.458518+00:00", "meta": {"OBJECT_NAME": "COSMOS 2251 DEB", "OBJECT_ID": "1993-036BTC", "EPOCH": "2025-12-12T16:22:29.483616", "MEAN_MOTION": 14.7768615, "ECCENTRICITY": 0.00924054, "INCLINATION": 74.0522, "RA_OF_ASC_NODE": 76.7119, "ARG_OF_PERICENTER": 143.7275, "MEAN_ANOMALY": 217.0214, "EPHEMERIS_TYPE": 0, "CLASSIFICATION_TYPE": "U", "NORAD_CAT_ID": 38212, "ELEMENT_SET_NO": 999, "REV_AT_EPOCH": 81309, "BSTAR": 0.00069160786, "MEAN_MOTION_DOT": 5.288e-05, "MEAN_MOTION_DDOT": 0}, "tle": {"line1": "1 38212U 93036BTC 25346.68228569  .00005288  00000+0  69161-3 0  9991", "line2": "2 38212  74.0522  76.7119 0092405 143.7275 217.0214 14.77686150813091"}}, "geometry": {"type": "Point", "coordinates": [-102.29314366924112, -15.397498022659994]}}, {"type": "Feature", "properties": {"norad_id": 38220, "name": "COSMOS 2251 DEB", "group": "cosmos-2251-debris", "lat": 71.0188846022013, "lon": 121.25017098198023, "alt_km": 578.5369817358014, "timestamp": "2025-12-14T11:29:50.458528+00:00", "meta": {"OBJECT_NAME": "COSMOS 2251 DEB", "OBJECT_ID": "1993-036BTL", "EPOCH": "2025-12-11T22:01:48.758016", "MEAN_MOTION": 14.92850575, "ECCENTRICITY": 0.0004483, "INCLINATION": 74.014, "RA_OF_ASC_NODE": 69.9473, "ARG_OF_PERICENTER": 50.1596, "MEAN_ANOMALY": 309.9981, "EPHEMERIS_TYPE": 0, "CLASSIFICATION_TYPE": "U", "NORAD_CAT_ID": 38220, "ELEMENT_SET_NO": 999, "REV_AT_EPOCH": 71358, "BSTAR": 0.0045219, "MEAN_MOTION_DOT": 0.00047133, "MEAN_MOTION_DDOT": 0}, "tle": {"line1": "1 38220U 93036BTL 25345.91792544  .00047133  00000+0  45219-2 0  9996", "line2": "2 38220  74.0140  69.9473 0004483  50.1596 309.9981 14.92850575713585"}}, "geometry": {"type": "Point", "coordinates": [121.25017098198023, 71.0188846022013]}}, {"type": "Feature", "properties": {"norad_id": 38479, "name": "COSMOS 2251 DEB", "group": "cosmos-2251-debris", "lat": -43.65237010303083, "lon": 16.95093124316937, "alt_km": 743.466594766317, "timestamp": "2025-12-14T11:29:50.458538+00:00", "meta": {"OBJECT_NAME": "COSMOS 2251 DEB", "OBJECT_ID": "1993-036BTP", "EPOCH": "2025-12-12T20:09:01.936800", "MEAN_MOTION": 14.38299124, "ECCENTRICITY": 0.00841582, "INCLINATION": 74.0067, "RA_OF_ASC_NODE": 184.0967, "ARG_OF_PERICENTER": 293.0928, "MEAN_ANOMALY": 88.0441, "EPHEMERIS_TYPE": 0, "CLASSIFICATION_TYPE": "U", "NORAD_CAT_ID": 38479, "ELEMENT_SET_NO": 999, "REV_AT_EPOCH": 64689, "BSTAR": 0.0026120465, "MEAN_MOTION_DOT": 8.264e-05, "MEAN_MOTION_DDOT": 0}, "tle": {"line1": "1 38479U 93036BTP 25346.83960575  .00008264  00000+0  26120-2 0  9997", "line2": "2 38479  74.0067 184.0967 0084158 293.0928  88.0441 14.38299124646892"}}, "geometry": {"type": "Point", "coordinates": [16.95093124316937, -43.65237010303083]}}, {"type": "Feature", "properties": {"norad_id": 38481, "name": "COSMOS 2251 DEB", "group": "cosmos-2251-debris", "lat": -34.522844868562835, "lon": -164.01331473080492, "alt_km": 908.7611142430624, "timestamp": "2025-12-14T11:29:50.458548+00:00", "meta": {"OBJECT_NAME": "COSMOS 2251 DEB", "OBJECT_ID": "1993-036BTR", "EPOCH": "2025-12-11T08:25:34.899168", "MEAN_MOTION": 13.94814903, "ECCENTRICITY": 0.02344672, "INCLINATION": 73.9331, "RA_OF_ASC_NODE": 9.956, "ARG_OF_PERICENTER": 310.478, "MEAN_ANOMALY": 47.6118, "EPHEMERIS_TYPE": 0, "CLASSIFICATION_TYPE": "U", "NORAD_CAT_ID": 38481, "ELEMENT_SET_NO": 999, "REV_AT_EPOCH": 59041, "BSTAR": 0.0026201501, "MEAN_MOTION_DOT": 4.395e-05, "MEAN_MOTION_DDOT": 0}, "tle": {"line1": "1 38481U 93036BTR 25345.35109837  .00004395  00000+0  26202-2 0  9994", "line2": "2 38481  73.9331   9.9560 0234467 310.4780  47.6118 13.94814903590418"}}, "geometry": {"type": "Point", "coordinates": [-164.01331473080492, -34.522844868562835]}}, {"type": "Feature", "properties": {"norad_id": 38483, "name": "COSMOS 2251 DEB", "group": "cosmos-2251-debris", "lat": 4.968485273521473, "lon": -172.77050438929487, "alt_km": 758.6689872428251, "timestamp": "2025-12-14T11:29:50.458558+00:00", "meta": {"OBJECT_NAME": "COSMOS 2251 DEB", "OBJECT_ID": "1993-036BTT", "EPOCH": "2025-12-12T08:16:48.530496", "MEAN_MOTION": 14.28787654, "ECCENTRICITY": 0.01107994, "INCLINATION": 74.262, "RA_OF_ASC_NODE": 12.4521, "ARG_OF_PERICENTER": 118.0167, "MEAN_ANOMALY": 243.2246, "EPHEMERIS_TYPE": 0, "CLASSIFICATION_TYPE": "U", "NORAD_CAT_ID": 38483, "ELEMENT_SET_NO": 999, "REV_AT_EPOCH": 63472, "BSTAR": 0.0012977102, "MEAN_MOTION_DOT": 3.471e-05, "MEAN_MOTION_DDOT": 0}, "tle": {"line1": "1 38483U 93036BTT 25346.34500614  .00003471  00000+0  12977-2 0  9992", "line2": "2 38483  74.2620  12.4521 0110799 118.0167 243.2246 14.28787654634722"}}, "geometry": {"type": "Point", "coordinates": [-172.77050438929487, 4.968485273521473]}}, {"type": "Feature", "properties": {"norad_id": 38486, "name": "COSMOS 2251 DEB", "group": "cosmos-2251-debris", "lat": 67.11603846242679, "lon": -115.5173770762149, "alt_km": 642.6375906117719, "timestamp": "2025-12-14T11:29:50.458569+00:00", "meta": {"OBJECT_NAME": "COSMOS 2251 DEB", "OBJECT_ID": "1993-036BTW", "EPOCH": "2025-12-11T09:00:08.342784", "MEAN_MOTION": 14.73192637, "ECCENTRICITY": 0.00301862, "INCLINATION": 73.9417, "RA_OF_ASC_NODE": 207.5314, "ARG_OF_PERICENTER": 352.193, "MEAN_ANOMALY": 184.8713, "EPHEMERIS_TYPE": 0, "CLASSIFICATION_TYPE": "U", "NORAD_CAT_ID": 38486, "ELEMENT_SET_NO": 999, "REV_AT_EPOCH": 75414, "BSTAR": 0.0047751445, "MEAN_MOTION_DOT": 0.00031144, "MEAN_MOTION_DDOT": 0}, "tle": {"line1": "1 38486U 93036BTW 25345.37509656  .00031144  00000+0  47751-2 0  9998", "line2": "2 38486  73.9417 207.5314 0030186 352.1930 184.8713 14.73192637754141"}}, "geometry": {"type": "Point", "coordinates": [-115.5173770762149, 67.11603846242679]}}]}